MEAN_MOTION;ECCENTRICITY;INCLINATION;RA_OF_ASC_NODE;ARG_OF_PERICENTER;MEAN_ANOMALY;BSTAR;MEAN_MOTION_DOT;MEAN_MOTION_DDOT;TYPE
15.60923378;0.0008578;42.7841;164.5571;331.4368;180.709;5.006E-5;3.929E-5;0;Human Spaceflight
15.60926711;0.0008563;42.7842;162.4358;333.7124;20.4154;5.0672E-5;3.982E-5;0;Human Spaceflight
15.60931113;0.0008543;42.7837;159.6787;336.2716;99.7134;5.1354E-5;4.042E-5;0;Human Spaceflight
15.6093312;0.0008511;42.7834;158.4766;337.8918;154.386;5.175E-5;4.076E-5;0;Human Spaceflight
15.60935391;0.000856;42.7834;157.1091;339.3307;5.5129;5.2102E-5;4.107E-5;0;Human Spaceflight
15.60938242;0.0008487;42.7836;155.3376;341.2787;233.1843;5.266E-5;4.156E-5;0;Human Spaceflight
15.60941557;0.00084;42.7836;153.4435;343.1253;218.1559;5.3421E-5;4.222E-5;0;Human Spaceflight
15.60943619;0.000845;42.7832;152.3647;344.5226;155.7505;5.4557E-5;4.32E-5;0;Human Spaceflight
15.60946443;0.0008371;42.7834;150.9987;345.6068;4.7255;5.6103E-5;4.454E-5;0;Human Spaceflight
15.60947879;0.0008388;42.7833;150.1464;346.5952;87.6152;5.6158E-5;4.459E-5;0;Human Spaceflight
15.60952275;0.0008264;42.7834;148.1239;348.2509;194.1016;5.8348E-5;4.649E-5;0;Human Spaceflight
15.60954821;0.0008253;42.7836;147.0121;349.8055;162.333;5.9634E-5;4.761E-5;0;Human Spaceflight
15.60958427;0.0008179;42.7836;145.2742;351.8166;0.9446;6.139E-5;4.913E-5;0;Human Spaceflight
15.60962647;0.0008156;42.7836;143.2967;353.888;64.8604;6.2789E-5;5.035E-5;0;Human Spaceflight
15.60966393;0.0008086;42.7836;141.2963;356.1618;149.8087;6.3028E-5;5.057E-5;0;Human Spaceflight
15.6097011;0.000809;42.7836;139.5665;358.0739;340.5478;6.472E-5;5.204E-5;0;Human Spaceflight
15.60970843;0.0008086;42.7836;139.1646;358.5392;359.4061;6.4675E-5;5.2E-5;0;Human Spaceflight
15.60974768;0.0007923;42.7835;135.9084;1.6354;189.6431;6.0811E-5;4.866E-5;0;Human Spaceflight
15.60978057;0.0007884;42.7838;133.8524;3.89;327.9693;6.0123E-5;4.807E-5;0;Human Spaceflight
15.60981444;0.0007901;42.7838;131.8647;6.1836;41.6204;5.9988E-5;4.796E-5;0;Human Spaceflight
15.60982227;0.000784;42.7839;129.8666;8.3981;125.0822;5.5137E-5;4.377E-5;0;Human Spaceflight
15.60982606;0.0007796;42.7841;129.466;8.7654;143.4924;5.4572E-5;4.328E-5;0;Human Spaceflight
15.60983329;0.0007707;42.7842;127.7349;10.7293;335.6025;4.8931E-5;3.84E-5;0;Human Spaceflight
15.60986299;0.0007702;42.7842;125.6997;13.0979;93.7303;4.9047E-5;3.85E-5;0;Human Spaceflight
15.60988306;0.000758;42.7841;123.786;15.3076;97.333;4.7768E-5;3.74E-5;0;Human Spaceflight
15.60989961;0.0007504;42.784;122.023;17.395;319.4916;4.563E-5;3.555E-5;0;Human Spaceflight
15.60992997;0.0007429;42.784;120.0331;19.5249;35.2041;4.6518E-5;3.632E-5;0;Human Spaceflight
15.60998032;0.0007363;42.7837;116.3122;24.0781;302.4801;4.6961E-5;3.671E-5;0;Human Spaceflight
15.61000965;0.0007342;42.7837;114.2674;26.4538;70.2282;4.7212E-5;3.694E-5;0;Human Spaceflight
15.61003603;0.0007309;42.7837;111.9362;29.3307;106.7469;4.6211E-5;3.607E-5;0;Human Spaceflight
15.61006303;0.000729;42.7837;109.7851;31.8042;333.8595;4.5687E-5;3.562E-5;0;Human Spaceflight
15.61009095;0.000725;42.7836;107.8411;34.0314;5.7325;4.6206E-5;3.608E-5;0;Human Spaceflight
15.6101067;0.00072;42.7837;106.2027;35.9844;109.7165;4.5035E-5;3.507E-5;0;Human Spaceflight
15.61013292;0.0007145;42.7835;104.0723;38.7636;317.1458;4.46E-5;3.469E-5;0;Human Spaceflight
15.61016175;0.0007089;42.7834;102.0629;41.1254;50.5631;4.52E-5;3.522E-5;0;Human Spaceflight
15.6101815;0.0007057;42.7832;100.0867;43.4801;113.2707;4.4131E-5;3.429E-5;0;Human Spaceflight
15.61020205;0.0007013;42.783;98.3605;45.6136;301.2809;4.3695E-5;3.392E-5;0;Human Spaceflight
15.61023484;0.0006952;42.7829;95.9607;48.4633;43.0578;4.4223E-5;3.438E-5;0;Human Spaceflight
15.61025847;0.0006945;42.7831;94.0062;51.0084;86.3615;4.3971E-5;3.416E-5;0;Human Spaceflight
15.61027972;0.0006904;42.7832;92.2273;53.3562;322.577;4.3503E-5;3.376E-5;0;Human Spaceflight
15.61031371;0.0006816;42.7831;89.8473;56.273;45.5286;4.4267E-5;3.443E-5;0;Human Spaceflight
15.61032512;0.0006795;42.7831;89.0505;57.2055;76.65;4.4448E-5;3.459E-5;0;Human Spaceflight
15.61033751;0.0006806;42.7833;88.2894;58.1796;74.1187;4.498E-5;3.505E-5;0;Human Spaceflight
15.61035648;0.000677;42.7834;86.935;60.1107;270.3988;4.5302E-5;3.533E-5;0;Human Spaceflight
15.61036218;0.0006768;42.7834;86.5125;60.5991;308.5266;4.5328E-5;3.535E-5;0;Human Spaceflight
15.6103976;0.0006641;42.7832;84.1312;63.8476;32.3558;4.6217E-5;3.613E-5;0;Human Spaceflight
15.61042718;0.0006629;42.7833;82.5421;65.7285;90.8478;4.7591E-5;3.732E-5;0;Human Spaceflight
15.61046373;0.0006599;42.7833;80.4134;68.3965;297.8627;4.942E-5;3.892E-5;0;Human Spaceflight
15.61053046;0.0006527;42.7831;76.4604;73.9096;63.6282;5.1325E-5;4.058E-5;0;Human Spaceflight
15.61056276;0.0006531;42.7833;74.6967;76.2033;286.0509;5.2761E-5;4.183E-5;0;Human Spaceflight
15.61060344;0.0006462;42.7833;72.2869;79.4982;36.374;5.3486E-5;4.246E-5;0;Human Spaceflight
15.61062433;0.0006423;42.7835;70.7441;82.2068;50.1219;5.2834E-5;4.19E-5;0;Human Spaceflight
15.61066648;0.0006417;42.7833;68.1308;85.6408;353.2;5.3323E-5;4.233E-5;0;Human Spaceflight
15.61069767;0.0006307;42.7835;66.0995;89.1775;105.7518;5.3353E-5;4.236E-5;0;Human Spaceflight
15.61070969;0.0006303;42.7836;64.9961;90.8874;65.5797;5.2432E-5;4.157E-5;0;Human Spaceflight
15.6107393;0.0006297;42.7839;62.8676;93.909;271.7604;5.1591E-5;4.084E-5;0;Human Spaceflight
15.61076369;0.0006237;42.7839;61.6769;96.2275;312.9542;5.3011E-5;4.208E-5;0;Human Spaceflight
15.61077448;0.0006255;42.7838;60.9198;96.8659;306.9311;5.2869E-5;4.196E-5;0;Human Spaceflight
15.61080184;0.00063;42.784;58.9134;99.5002;37.8303;5.2135E-5;4.132E-5;0;Human Spaceflight
15.61084078;0.0006292;42.784;56.2977;102.7511;342.6876;5.1905E-5;4.113E-5;0;Human Spaceflight
15.61087221;0.0006277;42.7839;54.2873;105.5604;77.0489;5.2128E-5;4.133E-5;0;Human Spaceflight
15.6108935;0.0006302;42.7841;53.1955;106.8491;25.4633;5.2972E-5;4.207E-5;0;Human Spaceflight
15.61092862;0.0006289;42.7841;51.4342;109.3554;244.8739;5.4727E-5;4.36E-5;0;Human Spaceflight
15.61095967;0.0006286;42.7841;49.7945;111.2573;350.083;5.5648E-5;4.44E-5;0;Human Spaceflight
15.61097118;0.0006285;42.784;49.034;112.2015;346.7168;5.5493E-5;4.427E-5;0;Human Spaceflight
15.61100658;0.0006295;42.7842;47.4468;113.867;42.5305;5.7099E-5;4.567E-5;0;Human Spaceflight
15.61105149;0.0006307;42.7841;45.3185;116.4757;247.8018;5.9528E-5;4.779E-5;0;Human Spaceflight
15.61106873;0.0006299;42.7841;44.4641;117.418;332.7654;5.9945E-5;4.816E-5;0;Human Spaceflight
15.61111356;0.0006301;42.784;42.1303;120.7467;12.7585;6.0672E-5;4.88E-5;0;Human Spaceflight
15.61116212;0.00063;42.7841;39.999;124.5795;220.1888;6.3253E-5;5.105E-5;0;Human Spaceflight
15.61120815;0.0006275;42.7839;37.9604;127.3474;340.7755;6.4859E-5;5.246E-5;0;Human Spaceflight
15.61125247;0.0006291;42.7843;36.0129;129.3682;16.5672;6.6019E-5;5.347E-5;0;Human Spaceflight
15.61130017;0.000638;42.7843;34.2949;132.2869;195.6387;6.9575E-5;5.658E-5;0;Human Spaceflight
15.61134922;0.0006396;42.7843;32.2449;135.2205;326.55;7.1001E-5;5.783E-5;0;Human Spaceflight
15.61138609;0.0006398;42.7847;30.2821;137.8557;16.2422;7.0194E-5;5.714E-5;0;Human Spaceflight
15.61139429;0.0006396;42.7848;29.898;138.3254;18.1002;7.0264E-5;5.72E-5;0;Human Spaceflight
15.61147217;0.0006334;42.7846;26.5317;142.4817;314.1487;7.271E-5;5.935E-5;0;Human Spaceflight
15.61149334;0.0006389;42.785;24.5855;145.4386;348.0248;6.8537E-5;5.572E-5;0;Human Spaceflight
15.6115083;0.0006391;42.7852;23.8179;146.3405;350.9964;6.8432E-5;5.563E-5;0;Human Spaceflight
15.61157381;0.0006382;42.7851;20.4167;150.6463;315.5954;6.7893E-5;5.518E-5;0;Human Spaceflight
15.61160499;0.0006461;42.7849;18.4677;153.59;352.2857;6.6307E-5;5.38E-5;0;Human Spaceflight
15.61161245;0.0006464;42.785;18.0914;154.0213;346.8435;6.633E-5;5.383E-5;0;Human Spaceflight
15.61167482;0.0006435;42.785;14.699;158.0647;303.162;6.5299E-5;5.294E-5;0;Human Spaceflight
15.61172952;0.0006434;42.7853;12.3504;161.1682;355.4641;6.6865E-5;5.432E-5;0;Human Spaceflight
15.61180937;0.0006537;42.7853;8.9806;166.651;289.9638;6.9593E-5;5.671E-5;0;Human Spaceflight
15.61186807;0.0006679;42.7857;6.6363;170.7106;339.0688;7.1497E-5;5.839E-5;0;Human Spaceflight
15.61194778;0.0006747;42.7862;3.6517;174.1004;271.2815;7.531E-5;6.174E-5;0;Human Spaceflight
15.6119806;0.0006856;42.7857;2.5066;177.0754;270.0438;7.6614E-5;6.288E-5;0;Human Spaceflight
15.61201568;0.0006952;42.786;0.9175;179.5244;326.3034;7.6397E-5;6.27E-5;0;Human Spaceflight
15.61210977;0.0007001;42.784;356.8011;184.3317;248.753;7.7412E-5;6.362E-5;0;Human Spaceflight
15.61212723;0.0007123;42.7843;355.5922;187.265;305.2059;7.5221E-5;6.171E-5;0;Human Spaceflight
15.61215087;0.0007129;42.7834;354.8059;187.8114;329.1444;7.687E-5;6.315E-5;0;Human Spaceflight
15.61223108;0.0007064;42.7833;351.0882;192.2058;232.3744;7.6288E-5;6.267E-5;0;Human Spaceflight
15.61223582;0.0007141;42.7831;350.2071;192.9059;343.5085;7.2975E-5;5.978E-5;0;Human Spaceflight
15.61225767;0.0007274;42.7836;349.1336;193.4974;276.3175;7.2248E-5;5.915E-5;0;Human Spaceflight
15.61226942;0.0007274;42.7838;348.7233;193.5456;303.6294;7.2801E-5;5.963E-5;0;Human Spaceflight
15.61233779;0.0007388;42.7834;344.9651;198.2266;245.5931;7.0439E-5;5.759E-5;0;Human Spaceflight
15.61236273;0.0007564;42.7847;343.0074;199.7346;292.3639;6.6537E-5;5.419E-5;0;Human Spaceflight
15.61237681;0.0007575;42.7848;342.2192;200.7956;316.4717;6.6219E-5;5.391E-5;0;Human Spaceflight
15.61244071;0.0007681;42.7848;338.3746;205.3317;339.2144;6.377E-5;5.179E-5;0;Human Spaceflight
15.61247622;0.0007736;42.7851;335.9365;208.2761;118.467;6.1739E-5;5.002E-5;0;Human Spaceflight
15.61252126;0.0007922;42.7841;332.2469;211.8739;356.5415;5.6935E-5;4.583E-5;0;Human Spaceflight
15.61261035;0.0008017;42.7847;326.6739;218.0412;207.2673;5.5671E-5;4.474E-5;0;Human Spaceflight
15.61269405;0.0007991;42.7848;322.0567;223.3777;237.8052;5.6986E-5;4.591E-5;0;Human Spaceflight
15.61271746;0.0008008;42.7848;320.4303;225.2441;330.2803;5.6186E-5;4.521E-5;0;Human Spaceflight
